satname,norad_id,inclination_deg,eccentricity,mean_motion_rev_per_day,perigee_km,apogee_km,l1,l2
STARLINK-1452,45669,53.0331,0.0005354,15.39731471,443.24860052331223,450.55685306276155,1 45669U 20035N   26036.91670139  .00128756  00000+0  31619-2 0  9993,2 45669  53.0331 172.5128 0005354 276.0857  12.5348 15.39731471  5824
STARLINK-1453,45670,53.0498,0.0004826,15.45921984,425.38538589950895,431.9553163548162,1 45670U 20035P   26036.91670139  .00143177  00000+0  28506-2 0  9990,2 45670  53.0498 165.5990 0004826 260.3367 188.9381 15.45921984  5938
STARLINK-1454,45671,53.0539,0.00028,15.44656541,430.48049858398645,434.29439227342664,1 45671U 20035Q   26036.91670139  .00213584  00000+0  43962-2 0  9994,2 45671  53.0539 204.8033 0002800 287.8142  69.8476 15.44656541  5738
STARLINK-1456,45673,53.0529,0.0004415,15.43017562,434.20033409520875,440.2182848864886,1 45673U 20035S   26036.70899610  .00138277  00000+0  30406-2 0  9994,2 45673  53.0529 199.1468 0004415 174.1956 185.9100 15.43017562314079
STARLINK-1457,45674,53.0489,0.0005179,15.68901376,358.5509780348975,365.53245514954233,1 45674U 20035T   26036.91670139  .00152757  00000+0  12840-2 0  9992,2 45674  53.0489 180.5041 0005179 318.2812   5.2699 15.68901376  5926
STARLINK-1458,45675,53.0544,5.67e-05,15.38151806,451.1875098711307,451.96199918409457,1 45675U 20035U   26036.18126335  .00135720  00000+0  35068-2 0  9994,2 45675  53.0544 209.3309 0000567 328.7331  31.3638 15.38151806313842
STARLINK-1460,45676,53.0554,0.0001332,15.06393627,546.3086313046269,548.1535493638921,1 45676U 20035V   26036.78839480 -.00001528  00000+0 -83745-4 0  9990,2 45676  53.0554 209.8285 0001332  87.2090 272.9051 15.06393627313882
STARLINK-1392,45677,53.0572,0.0003046,15.06210898,545.6815512420526,549.9008266947712,1 45677U 20035W   26036.73313916  .00042279  00000+0  28547-2 0  9990,2 45677  53.0572 210.0772 0003046  76.1950 283.9378 15.06210898313910
STARLINK-1394,45679,53.0541,0.0005253,15.42018226,436.5718919028841,443.7351879441276,1 45679U 20035Y   26036.68077390  .00030521  00000+0  71107-3 0  9997,2 45679  53.0541 189.2303 0005253 174.8765 185.2294 15.42018226314202
STARLINK-1402,45685,53.0502,0.0005296,15.4007631,442.2698893585448,449.4978922861028,1 45685U 20035AE  26036.91670139  .00131063  00000+0  31812-2 0  9991,2 45685  53.0502 174.1161 0005296 167.7793 265.0251 15.40076310  5810
STARLINK-1404,45686,53.1562,5.14e-05,15.29362973,477.36303014033456,478.0678117692087,1 45686U 20035AF  26035.70743870 -.00008549  00000+0 -28424-3 0  9991,2 45686  53.1562 202.8482 0000514 115.6400 244.4654 15.29362973313920
STARLINK-1413,45689,53.1602,0.0001424,15.30138377,474.423127228205,476.37501430115935,1 45689U 20035AJ  26036.91670139  .00077786  00000+0  26160-2 0  9996,2 45689  53.1602 197.1587 0001424  68.3589  57.5798 15.30138377  5834
STARLINK-1417,45693,53.0532,0.0006317,15.10604374,529.9890317042145,538.7222749224102,1 45693U 20035AN  26036.72839831  .00053371  00000+0  31867-2 0  9990,2 45693  53.0532 198.9523 0006317 143.0296 217.1131 15.10604374314067
STARLINK-1420,45695,53.0538,0.0001432,15.47356911,423.4874154727768,425.435679696805,1 45695U 20035AQ  26036.75308978  .00132196  00000+0  25099-2 0  9991,2 45695  53.0538 175.5634 0001432   7.2425 352.8603 15.47356911314407
STARLINK-1422,45696,53.1564,0.0001145,15.2928653,477.15886246595164,478.72890498832476,1 45696U 20035AR  26036.91670139  .00075749  00000+0  26163-2 0  9994,2 45696  53.1564 197.1373 0001145 102.6103 356.9184 15.29286530  5788
STARLINK-1351,45697,53.057,0.0001224,15.43715124,434.3220972641129,435.98999140136493,1 45697U 20035AS  26036.66767833  .00025737  00000+0  56849-3 0  9992,2 45697  53.0570 175.2122 0001224  19.1450 340.9601 15.43715124314400
STARLINK-1398,45699,53.0417,0.0004563,15.78094508,332.776204445996,338.9033796664262,1 45699U 20035AU  26036.91670139  .00221028  00000+0  12413-2 0  9993,2 45699  53.0417 100.0557 0004563 337.2228 231.2831 15.78094508  6012
STARLINK-1400,45700,53.0537,0.0002979,15.44822462,429.87107241898866,433.92849233392917,1 45700U 20035AV  26036.91670139  .00131183  00000+0  27172-2 0  9996,2 45700  53.0537 174.8492 0002979 340.2540  35.7961 15.44822462  5735
STARLINK-1403,45701,53.0563,0.0001195,15.0644122,546.2576633995368,547.9127915118997,1 45701U 20035AW  26036.76166280 -.00009698  00000+0 -63232-3 0  9992,2 45701  53.0563 179.9499 0001195  96.0519 264.0606 15.06441220314338
STARLINK-1407,45703,53.0365,0.0011364,15.54478331,395.9626359523745,411.37632572202256,1 45703U 20035AY  26036.60010550  .00083125  00000+0  12324-2 0  9995,2 45703  53.0365 111.3780 0011364 348.8608  11.2148 15.54478331315294
STARLINK-1411,45706,53.0463,0.0003304,15.56325721,396.0627225444068,400.54059320953183,1 45706U 20035BB  26036.70322788  .00103146  00000+0  14271-2 0  9997,2 45706  53.0463 137.0157 0003304   0.7596 359.3419 15.56325721314937
STARLINK-1423,45710,53.0533,0.0002141,15.46660854,425.0454756134923,427.9592221826906,1 45710U 20035BF  26036.91670139  .00143303  00000+0  27822-2 0  9996,2 45710  53.0533 174.3809 0002141 352.6148 324.0783 15.46660854  5835
STARLINK-1433,45711,53.0529,0.0002541,15.48752085,418.648074545672,422.1030786370957,1 45711U 20035BG  26036.91670139  .00128783  00000+0  23303-2 0  9992,2 45711  53.0529 173.8982 0002541 349.7129 311.7925 15.48752085  5737
STARLINK-1434,45712,53.0508,9.97e-05,15.23382645,494.9610198020737,496.33165219927196,1 45712U 20035BH  26036.65326300  .00101309  00000+0  41614-2 0  9992,2 45712  53.0508 168.0459 0000997  10.4557 349.6460 15.23382645314506
STARLINK-1465,45731,53.0552,0.0001763,15.44419346,431.8839251289937,434.285561915759,1 45731U 20038B   26036.34935069  .00160146  00000+0  33484-2 0  9990,2 45731  53.0552  17.7072 0001763 119.2523 240.8659 15.44419346311376
STARLINK-1471,45735,53.0481,0.000369,15.46559311,424.2891735797775,429.31121722998614,1 45735U 20038F   26036.68606142  .00159153  00000+0  30932-2 0  9999,2 45735  53.0481 295.1216 0003690 129.2506 230.8828 15.46559311312575
STARLINK-1474,45738,53.0229,0.0005258,15.99220685,273.0807102905619,280.0788104357589,1 45738U 20038J   26036.91670139  .00538232  13649-3  10764-2 0  9992,2 45738  53.0229 225.9203 0005258 251.0435 329.2067 15.99220685  6061
STARLINK-1480,45741,53.0547,0.00107,15.43235935,429.2746323313868,443.85809753234025,1 45741U 20038M   26036.91670139  .00183380  00000+0  39708-2 0  9998,2 45741  53.0547   8.7133 0010700  68.4787 284.4552 15.43235935  5934
STARLINK-1500,45744,53.0393,0.0004348,15.32945774,464.0526447644161,470.0052010509771,1 45744U 20038Q   26036.22833771  .00034276  00000+0  10685-2 0  9990,2 45744  53.0393 344.8018 0004348 116.2826 243.8622 15.32945774311832
STARLINK-1504,45746,53.0233,0.0004463,15.50984192,410.82000343248274,416.88253216031717,1 45746U 20038S   26036.74672991  .00045054  00000+0  76647-3 0  9991,2 45746  53.0233 296.0258 0004463 104.1033 256.0471 15.50984192312550
STARLINK-1506,45747,53.0755,0.0004797,15.25294169,486.60764438878687,493.19684123834213,1 45747U 20038T   26036.56079102  .00014959  00000+0  59859-3 0  9993,2 45747  53.0755 350.8581 0004797 127.9781 232.1650 15.25294169311789
STARLINK-1464,45751,53.0551,0.0004038,15.4038745,442.2097771154522,447.72011424678294,1 45751U 20038X   26036.83335647  .00179270  00000+0  42769-2 0  9996,2 45751  53.0551 355.7028 0004038  99.9082   8.9203 15.40387450  5829
STARLINK-1477,45754,53.0529,5.68e-05,15.12402462,528.4834293184049,529.2680659665375,1 45754U 20038AA  26036.27311223  .00051536  00000+0  29301-2 0  9992,2 45754  53.0529   0.0748 0000568  48.3097 311.7943 15.12402462311628
STARLINK-1478,45755,53.0554,0.0007199,15.48945498,414.91578071925323,424.7034642663184,1 45755U 20038AB  26036.83335647  .00201598  00000+0  35828-2 0  9997,2 45755  53.0554 351.1690 0007199  99.0384 340.6634 15.48945498  5833
STARLINK-1484,45756,53.0046,0.0002588,15.84459528,316.11408629398284,319.57992761598234,1 45756U 20038AC  26036.83335647  .00251799  00000+0  10501-2 0  9997,2 45756  53.0046 219.4779 0002588 226.1407 207.5673 15.84459528  6031
STARLINK-1493,45759,53.055,0.0001335,15.42340439,438.2937779596732,440.1140079780953,1 45759U 20038AF  26036.83335647  .00159779  00000+0  35832-2 0  9999,2 45759  53.0550 356.3394 0001335 119.6555 264.4290 15.42340439  5824
STARLINK-1494,45760,53.0505,0.0002322,15.67912559,363.30952427044485,366.44097916014107,1 45760U 20038AG  26036.74396730  .00103889  00000+0  91672-3 0  9997,2 45760  53.0505 309.7078 0002322 151.7553 208.3589 15.67912559312373
STARLINK-1502,45764,53.0694,0.0001588,15.33857292,463.2301766824894,465.40333999613813,1 45764U 20038AL  26036.83335647  .00571580  00000+0  16135-1 0  9997,2 45764  53.0694 357.3470 0001588  98.8931 312.9100 15.33857292  5819
STARLINK-1470,45772,53.0508,0.000269,15.25189212,488.369737948753,492.0649125757436,1 45772U 20038AU  26036.78815406  .00024217  00000+0  96268-3 0  9993,2 45772  53.0508 322.0360 0002690 104.8767 255.2528 15.25189212312207
STARLINK-1482,45773,53.1346,0.0001178,15.2469354,490.8965608325552,492.5150958029053,1 45773U 20038AV  26036.83335647  .01363028  00000+0  50102-1 0  9996,2 45773  53.1346 338.8659 0001178  86.5720 122.1855 15.24693540  5779
STARLINK-1496,45780,53.0572,0.0009021,15.42599919,432.2901435349977,444.58861063453514,1 45780U 20038BC  26036.10808431  .00101863  00000+0  22825-2 0  9998,2 45780  53.0572 333.0255 0009021  91.1201 269.0837 15.42599919311975
STARLINK-1497,45781,53.0207,0.000562,16.08223206,247.99601109309333,255.4479725999281,1 45781U 20038BD  26036.63876487  .01167946  82282-3  13680-2 0  9993,2 45781  53.0207 239.2239 0005620 237.7876 122.2613 16.08223206313348
STARLINK-1513,45786,53.1344,0.0001684,15.24606628,490.8099826707412,493.12383366701124,1 45786U 20038BJ  26036.83335647  .00911736  00000+0  33813-1 0  9994,2 45786  53.1344 338.9999 0001684  98.9119  56.4777 15.24606628  5773
